start=new Date('2022-12-28T00:00:00.000Z').valueOf();
sats=[{"MEAN_MOTION_DDOT":"0.0000000000000","MEAN_MOTION_DOT":"0.00001841","SEMIMAJOR_AXIS":"6925.353","OBJECT_NAME":"STARLINK-2028","TLE_LINE2":"2 47646  53.0519 210.6077 0001575  74.9441 285.1722 15.06398496104814","EPOCH":"2022-12-27T14:28:33.946752","SITE":"AFETR","ELEMENT_SET_NO":"999","RA_OF_ASC_NODE":"210.6077","OBJECT_ID":"2021-012AC","INCLINATION":"53.0519","BSTAR":"0.00014246000000","LAUNCH_DATE":"2021-02-16","CLASSIFICATION_TYPE":"U","ARG_OF_PERICENTER":"74.9441","DECAY_DATE":null,"FILE":"3724149","MEAN_ELEMENT_THEORY":"SGP4","NORAD_CAT_ID":"47646","PERIAPSIS":"546.127","COUNTRY_CODE":"US","GP_ID":"221622054","TIME_SYSTEM":"UTC","OBJECT_TYPE":"PAYLOAD","TLE_LINE1":"1 47646U 21012AC  22361.60317068  .00001841  00000-0  14246-3 0  9992","MEAN_ANOMALY":"285.1722","EPHEMERIS_TYPE":"0","REF_FRAME":"TEME","CENTER_NAME":"EARTH","MEAN_MOTION":"15.06398496","REV_AT_EPOCH":"10481","ECCENTRICITY":"0.00015750","RCS_SIZE":"LARGE","PERIOD":"95.592","APOAPSIS":"548.309"},{"APOAPSIS":"548.155","PERIOD":"95.592","RCS_SIZE":"LARGE","ECCENTRICITY":"0.00013970","MEAN_MOTION":"15.06408552","REV_AT_EPOCH":"10387","CENTER_NAME":"EARTH","REF_FRAME":"TEME","MEAN_ANOMALY":"276.3312","EPHEMERIS_TYPE":"0","TLE_LINE1":"1 47647U 21012AD  22361.20827922  .00003724  00000-0  26873-3 0  9995","TIME_SYSTEM":"UTC","GP_ID":"221564051","OBJECT_TYPE":"PAYLOAD","COUNTRY_CODE":"US","PERIAPSIS":"546.220","NORAD_CAT_ID":"47647","FILE":"3723863","DECAY_DATE":null,"MEAN_ELEMENT_THEORY":"SGP4","CLASSIFICATION_TYPE":"U","ARG_OF_PERICENTER":"83.7836","LAUNCH_DATE":"2021-02-16","BSTAR":"0.00026873000000","INCLINATION":"53.0520","OBJECT_ID":"2021-012AD","RA_OF_ASC_NODE":"277.1457","TLE_LINE2":"2 47647  53.0520 277.1457 0001397  83.7836 276.3312 15.06408552103872","EPOCH":"2022-12-27T04:59:55.324608","SITE":"AFETR","ELEMENT_SET_NO":"999","OBJECT_NAME":"STARLINK-2030","SEMIMAJOR_AXIS":"6925.322","MEAN_MOTION_DDOT":"0.0000000000000","MEAN_MOTION_DOT":"0.00003724"},{"PERIOD":"95.591","RCS_SIZE":"MEDIUM","ECCENTRICITY":"0.00013940","APOAPSIS":"548.146","TLE_LINE1":"1 47648U 21012AE  22361.72983573  .00004361  00000-0  31142-3 0  9991","OBJECT_TYPE":"PAYLOAD","GP_ID":"221621053","TIME_SYSTEM":"UTC","COUNTRY_CODE":"US","PERIAPSIS":"546.215","MEAN_MOTION":"15.06410776","REV_AT_EPOCH":"10423","CENTER_NAME":"EARTH","REF_FRAME":"TEME","MEAN_ANOMALY":"262.2707","EPHEMERIS_TYPE":"0","LAUNCH_DATE":"2021-02-16","INCLINATION":"53.0507","BSTAR":"0.00031142000000","NORAD_CAT_ID":"47648","FILE":"3724149","DECAY_DATE":null,"MEAN_ELEMENT_THEORY":"SGP4","CLASSIFICATION_TYPE":"U","ARG_OF_PERICENTER":"97.8440","SEMIMAJOR_AXIS":"6925.316","OBJECT_NAME":"STARLINK-2031","MEAN_MOTION_DDOT":"0.0000000000000","MEAN_MOTION_DOT":"0.00004361","OBJECT_ID":"2021-012AE","RA_OF_ASC_NODE":"254.8022","TLE_LINE2":"2 47648  53.0507 254.8022 0001394  97.8440 262.2707 15.06410776104236","SITE":"AFETR","EPOCH":"2022-12-27T17:30:57.807072","ELEMENT_SET_NO":"999"},{"EPHEMERIS_TYPE":"0","MEAN_ANOMALY":"282.4272","REF_FRAME":"TEME","CENTER_NAME":"EARTH","MEAN_MOTION":"15.06410024","REV_AT_EPOCH":"10414","COUNTRY_CODE":"US","PERIAPSIS":"545.985","GP_ID":"221563549","TIME_SYSTEM":"UTC","OBJECT_TYPE":"PAYLOAD","TLE_LINE1":"1 47649U 21012AF  22361.13640222  .00001624  00000-0  12789-3 0  9993","APOAPSIS":"548.381","ECCENTRICITY":"0.00017300","RCS_SIZE":"LARGE","PERIOD":"95.592","ELEMENT_SET_NO":"999","TLE_LINE2":"2 47649  53.0549 257.4707 0001730  77.6910 282.4272 15.06410024104141","SITE":"AFETR","EPOCH":"2022-12-27T03:16:25.151808","RA_OF_ASC_NODE":"257.4707","OBJECT_ID":"2021-012AF","MEAN_MOTION_DOT":"0.00001624","MEAN_MOTION_DDOT":"0.0000000000000","OBJECT_NAME":"STARLINK-2032","SEMIMAJOR_AXIS":"6925.318","ARG_OF_PERICENTER":"77.6910","CLASSIFICATION_TYPE":"U","FILE":"3723863","DECAY_DATE":null,"MEAN_ELEMENT_THEORY":"SGP4","NORAD_CAT_ID":"47649","INCLINATION":"53.0549","BSTAR":"0.00012789000000","LAUNCH_DATE":"2021-02-16"},{"MEAN_MOTION_DOT":"0.00002205","MEAN_MOTION_DDOT":"0.0000000000000","OBJECT_NAME":"STARLINK-2033","SEMIMAJOR_AXIS":"6925.310","ELEMENT_SET_NO":"999","TLE_LINE2":"2 47650  53.0546 256.0467 0001527  82.4932 277.6230 15.06412727104175","EPOCH":"2022-12-27T10:52:52.544352","SITE":"AFETR","RA_OF_ASC_NODE":"256.0467","OBJECT_ID":"2021-012AG","INCLINATION":"53.0546","BSTAR":"0.00016680000000","LAUNCH_DATE":"2021-02-16","ARG_OF_PERICENTER":"82.4932","CLASSIFICATION_TYPE":"U","MEAN_ELEMENT_THEORY":"SGP4","FILE":"3723863","DECAY_DATE":null,"NORAD_CAT_ID":"47650","PERIAPSIS":"546.117","COUNTRY_CODE":"US","TIME_SYSTEM":"UTC","GP_ID":"221563801","OBJECT_TYPE":"PAYLOAD","TLE_LINE1":"1 47650U 21012AG  22361.45338593  .00002205  00000-0  16680-3 0  9995","EPHEMERIS_TYPE":"0","MEAN_ANOMALY":"277.6230","REF_FRAME":"TEME","CENTER_NAME":"EARTH","REV_AT_EPOCH":"10417","MEAN_MOTION":"15.06412727","ECCENTRICITY":"0.00015270","RCS_SIZE":"LARGE","PERIOD":"95.591","APOAPSIS":"548.232"},{"NORAD_CAT_ID":"47651","CLASSIFICATION_TYPE":"U","ARG_OF_PERICENTER":"88.0180","FILE":"3724149","MEAN_ELEMENT_THEORY":"SGP4","DECAY_DATE":null,"BSTAR":"0.00036283000000","INCLINATION":"53.0531","LAUNCH_DATE":"2021-02-16","RA_OF_ASC_NODE":"274.7267","OBJECT_ID":"2021-012AH","SITE":"AFETR","TLE_LINE2":"2 47651  53.0531 274.7267 0001427  88.0180 272.0972 15.06413395103950","EPOCH":"2022-12-27T18:10:47.129088","ELEMENT_SET_NO":"999","SEMIMAJOR_AXIS":"6925.308","OBJECT_NAME":"STARLINK-2035","MEAN_MOTION_DDOT":"0.0000000000000","MEAN_MOTION_DOT":"0.00005129","APOAPSIS":"548.161","RCS_SIZE":"LARGE","PERIOD":"95.591","ECCENTRICITY":"0.00014270","CENTER_NAME":"EARTH","REV_AT_EPOCH":"10395","MEAN_MOTION":"15.06413395","MEAN_ANOMALY":"272.0972","EPHEMERIS_TYPE":"0","REF_FRAME":"TEME","GP_ID":"221620303","OBJECT_TYPE":"PAYLOAD","TIME_SYSTEM":"UTC","TLE_LINE1":"1 47651U 21012AH  22361.75748992  .00005129  00000-0  36283-3 0  9996","COUNTRY_CODE":"US","PERIAPSIS":"546.184"},{"APOAPSIS":"548.074","RCS_SIZE":"LARGE","PERIOD":"95.591","ECCENTRICITY":"0.00013260","CENTER_NAME":"EARTH","REV_AT_EPOCH":"10395","MEAN_MOTION":"15.06418902","EPHEMERIS_TYPE":"0","MEAN_ANOMALY":"275.5267","REF_FRAME":"TEME","GP_ID":"221620553","TIME_SYSTEM":"UTC","OBJECT_TYPE":"PAYLOAD","TLE_LINE1":"1 47652U 21012AJ  22361.77959588  .00006200  00000-0  43456-3 0  9995","COUNTRY_CODE":"US","PERIAPSIS":"546.237","NORAD_CAT_ID":"47652","ARG_OF_PERICENTER":"84.5873","CLASSIFICATION_TYPE":"U","FILE":"3724149","DECAY_DATE":null,"MEAN_ELEMENT_THEORY":"SGP4","INCLINATION":"53.0537","BSTAR":"0.00043456000000","LAUNCH_DATE":"2021-02-16","RA_OF_ASC_NODE":"274.5728","OBJECT_ID":"2021-012AJ","ELEMENT_SET_NO":"999","TLE_LINE2":"2 47652  53.0537 274.5728 0001326  84.5873 275.5267 15.06418902103959","SITE":"AFETR","EPOCH":"2022-12-27T18:42:37.084032","SEMIMAJOR_AXIS":"6925.291","OBJECT_NAME":"STARLINK-2036","MEAN_MOTION_DOT":"0.00006200","MEAN_MOTION_DDOT":"0.0000000000000"},{"TLE_LINE1":"1 47653U 21012AK  22361.77407018  .00006355  00000-0  44499-3 0  9991","OBJECT_TYPE":"PAYLOAD","GP_ID":"221621305","TIME_SYSTEM":"UTC","PERIAPSIS":"546.124","COUNTRY_CODE":"US","REV_AT_EPOCH":"10422","MEAN_MOTION":"15.06411757","CENTER_NAME":"EARTH","REF_FRAME":"TEME","EPHEMERIS_TYPE":"0","MEAN_ANOMALY":"282.7683","PERIOD":"95.591","RCS_SIZE":"LARGE","ECCENTRICITY":"0.00015210","APOAPSIS":"548.231","SEMIMAJOR_AXIS":"6925.313","OBJECT_NAME":"STARLINK-2037","MEAN_MOTION_DOT":"0.00006355","MEAN_MOTION_DDOT":"0.0000000000000","OBJECT_ID":"2021-012AK","RA_OF_ASC_NODE":"254.6088","ELEMENT_SET_NO":"999","TLE_LINE2":"2 47653  53.0553 254.6088 0001521  77.3476 282.7683 15.06411757104226","EPOCH":"2022-12-27T18:34:39.663552","SITE":"AFETR","LAUNCH_DATE":"2021-02-16","INCLINATION":"53.0553","BSTAR":"0.00044499000000","NORAD_CAT_ID":"47653","FILE":"3724149","MEAN_ELEMENT_THEORY":"SGP4","DECAY_DATE":null,"ARG_OF_PERICENTER":"77.3476","CLASSIFICATION_TYPE":"U"},{"SEMIMAJOR_AXIS":"6925.308","OBJECT_NAME":"STARLINK-2038","MEAN_MOTION_DOT":"0.00004254","MEAN_MOTION_DDOT":"0.0000000000000","RA_OF_ASC_NODE":"276.9473","OBJECT_ID":"2021-012AL","ELEMENT_SET_NO":"999","TLE_LINE2":"2 47654  53.0516 276.9473 0001467  78.1223 281.9931 15.06413318103871","EPOCH":"2022-12-27T06:03:36.867456","SITE":"AFETR","INCLINATION":"53.0516","BSTAR":"0.00030421000000","LAUNCH_DATE":"2021-02-16","NORAD_CAT_ID":"47654","ARG_OF_PERICENTER":"78.1223","CLASSIFICATION_TYPE":"U","DECAY_DATE":null,"FILE":"3723863","MEAN_ELEMENT_THEORY":"SGP4","OBJECT_TYPE":"PAYLOAD","GP_ID":"221564301","TIME_SYSTEM":"UTC","TLE_LINE1":"1 47654U 21012AL  22361.25251004  .00004254  00000-0  30421-3 0  9993","PERIAPSIS":"546.157","COUNTRY_CODE":"US","CENTER_NAME":"EARTH","MEAN_MOTION":"15.06413318","REV_AT_EPOCH":"10387","EPHEMERIS_TYPE":"0","MEAN_ANOMALY":"281.9931","REF_FRAME":"TEME","RCS_SIZE":"LARGE","PERIOD":"95.591","ECCENTRICITY":"0.00014670","APOAPSIS":"548.189"},{"INCLINATION":"53.0565","BSTAR":"0.00008725400000","LAUNCH_DATE":"2021-02-16","ARG_OF_PERICENTER":"66.6358","CLASSIFICATION_TYPE":"U","FILE":"3723863","MEAN_ELEMENT_THEORY":"SGP4","DECAY_DATE":null,"NORAD_CAT_ID":"47655","MEAN_MOTION_DOT":"0.00001018","MEAN_MOTION_DDOT":"0.0000000000000","OBJECT_NAME":"STARLINK-2039","SEMIMAJOR_AXIS":"6925.342","ELEMENT_SET_NO":"999","TLE_LINE2":"2 47655  53.0565 277.2767 0001685  66.6358 293.4808 15.06402120103868","SITE":"AFETR","EPOCH":"2022-12-27T04:17:27.828384","RA_OF_ASC_NODE":"277.2767","OBJECT_ID":"2021-012AM","ECCENTRICITY":"0.00016850","RCS_SIZE":"LARGE","PERIOD":"95.592","APOAPSIS":"548.374","PERIAPSIS":"546.040","COUNTRY_CODE":"US","GP_ID":"221564052","TIME_SYSTEM":"UTC","OBJECT_TYPE":"PAYLOAD","TLE_LINE1":"1 47655U 21012AM  22361.17879431  .00001018  00000-0  87254-4 0  9997","EPHEMERIS_TYPE":"0","MEAN_ANOMALY":"293.4808","REF_FRAME":"TEME","CENTER_NAME":"EARTH","REV_AT_EPOCH":"10386","MEAN_MOTION":"15.06402120"}];
